[{"OBJECT_NAME":"OBJECT L","OBJECT_ID":"2023-085L","EPOCH":"2026-03-09T23:02:21.999840","MEAN_MOTION":15.29079976,"ECCENTRICITY":0.0005428,"INCLINATION":97.486,"RA_OF_ASC_NODE":178.8598,"ARG_OF_PERICENTER":50.8528,"MEAN_ANOMALY":309.3193,"EPHEMERIS_TYPE":0,"CLASSIFICATION_TYPE":"U","NORAD_CAT_ID":57014,"ELEMENT_SET_NO":999,"REV_AT_EPOCH":15144,"BSTAR":0.00063462603,"MEAN_MOTION_DOT":0.00017871,"MEAN_MOTION_DDOT":0},{"OBJECT_NAME":"STARLINK-31868","OBJECT_ID":"2024-093B","EPOCH":"2026-03-09T09:00:08.497440","MEAN_MOTION":15.27575082,"ECCENTRICITY":0.00014446,"INCLINATION":43.0032,"RA_OF_ASC_NODE":207.45,"ARG_OF_PERICENTER":253.4787,"MEAN_ANOMALY":106.5907,"EPHEMERIS_TYPE":0,"CLASSIFICATION_TYPE":"U","NORAD_CAT_ID":59783,"ELEMENT_SET_NO":999,"REV_AT_EPOCH":10268,"BSTAR":-7.408383e-6,"MEAN_MOTION_DOT":-4.66e-6,"MEAN_MOTION_DDOT":0}]
